start=new Date('2023-05-08T00:00:00.000Z').valueOf();
sats=[{"TLE_LINE1":"1 54004U 22125AS  23127.48023111 -.00000804  00000-0 -32440-4 0  9991","CENTER_NAME":"EARTH","FILE":"3903051","MEAN_ANOMALY":"275.6295","MEAN_ELEMENT_THEORY":"SGP4","MEAN_MOTION_DDOT":"0.0000000000000","RA_OF_ASC_NODE":"190.0180","BSTAR":"-0.00003244000000","DECAY_DATE":null,"MEAN_MOTION":"15.08832133","GP_ID":"231371759","ELEMENT_SET_NO":"999","CLASSIFICATION_TYPE":"U","PERIAPSIS":"538.872","NORAD_CAT_ID":"54004","EPHEMERIS_TYPE":"0","SEMIMAJOR_AXIS":"6917.904","EPOCH":"2023-05-07T11:31:31.967904","SITE":"AFWTR","TIME_SYSTEM":"UTC","REV_AT_EPOCH":"3293","RCS_SIZE":"LARGE","MEAN_MOTION_DOT":"-0.00000804","OBJECT_TYPE":"PAYLOAD","REF_FRAME":"TEME","LAUNCH_DATE":"2022-10-05","APOAPSIS":"540.667","ECCENTRICITY":"0.00012970","INCLINATION":"53.2152","COUNTRY_CODE":"US","OBJECT_NAME":"STARLINK-5129","OBJECT_ID":"2022-125AS","PERIOD":"95.438","TLE_LINE2":"2 54004  53.2152 190.0180 0001297  84.4845 275.6295 15.08832133 32931","ARG_OF_PERICENTER":"84.4845"},{"BSTAR":"0.00013653000000","DECAY_DATE":null,"RA_OF_ASC_NODE":"190.0405","NORAD_CAT_ID":"54005","ELEMENT_SET_NO":"999","CLASSIFICATION_TYPE":"U","PERIAPSIS":"539.055","MEAN_MOTION":"15.08845499","GP_ID":"231401265","TLE_LINE1":"1 54005U 22125AT  23127.48390616  .00001886  00000-0  13653-3 0  9992","CENTER_NAME":"EARTH","MEAN_MOTION_DDOT":"0.0000000000000","MEAN_ELEMENT_THEORY":"SGP4","MEAN_ANOMALY":"268.6955","FILE":"3903215","LAUNCH_DATE":"2022-10-05","REF_FRAME":"TEME","OBJECT_TYPE":"PAYLOAD","ARG_OF_PERICENTER":"91.4149","TLE_LINE2":"2 54005  53.2148 190.0405 0000973  91.4149 268.6955 15.08845499 32880","COUNTRY_CODE":"US","OBJECT_ID":"2022-125AT","INCLINATION":"53.2148","OBJECT_NAME":"STARLINK-5135","PERIOD":"95.437","ECCENTRICITY":"0.00009730","APOAPSIS":"540.402","TIME_SYSTEM":"UTC","EPOCH":"2023-05-07T11:36:49.492224","SITE":"AFWTR","SEMIMAJOR_AXIS":"6917.864","EPHEMERIS_TYPE":"0","RCS_SIZE":"LARGE","MEAN_MOTION_DOT":"0.00001886","REV_AT_EPOCH":"3288"},{"RA_OF_ASC_NODE":"188.1744","DECAY_DATE":null,"BSTAR":"0.00017016000000","MEAN_MOTION":"15.08834713","GP_ID":"231432846","ELEMENT_SET_NO":"999","CLASSIFICATION_TYPE":"U","PERIAPSIS":"538.879","NORAD_CAT_ID":"54006","CENTER_NAME":"EARTH","TLE_LINE1":"1 54006U 22125AU  23127.86661833  .00002421  00000-0  17016-3 0  9990","FILE":"3903413","MEAN_ANOMALY":"267.6753","MEAN_ELEMENT_THEORY":"SGP4","MEAN_MOTION_DDOT":"0.0000000000000","OBJECT_TYPE":"PAYLOAD","REF_FRAME":"TEME","LAUNCH_DATE":"2022-10-05","APOAPSIS":"540.644","ECCENTRICITY":"0.00012760","INCLINATION":"53.2145","COUNTRY_CODE":"US","OBJECT_ID":"2022-125AU","OBJECT_NAME":"STARLINK-5096","PERIOD":"95.438","TLE_LINE2":"2 54006  53.2145 188.1744 0001276  92.4385 267.6753 15.08834713 32930","ARG_OF_PERICENTER":"92.4385","EPHEMERIS_TYPE":"0","SEMIMAJOR_AXIS":"6917.897","EPOCH":"2023-05-07T20:47:55.823712","SITE":"AFWTR","TIME_SYSTEM":"UTC","REV_AT_EPOCH":"3293","RCS_SIZE":"LARGE","MEAN_MOTION_DOT":"0.00002421"},{"CENTER_NAME":"EARTH","TLE_LINE1":"1 54007U 22125AV  23127.87397795 -.00000140  00000-0  92656-5 0  9997","FILE":"3903413","MEAN_ANOMALY":"266.2509","MEAN_ELEMENT_THEORY":"SGP4","MEAN_MOTION_DDOT":"0.0000000000000","RA_OF_ASC_NODE":"188.2145","BSTAR":"0.00000926560000","DECAY_DATE":null,"MEAN_MOTION":"15.08839287","GP_ID":"231432597","ELEMENT_SET_NO":"999","CLASSIFICATION_TYPE":"U","PERIAPSIS":"538.947","NORAD_CAT_ID":"54007","EPHEMERIS_TYPE":"0","SEMIMAJOR_AXIS":"6917.883","EPOCH":"2023-05-07T20:58:31.694880","SITE":"AFWTR","TIME_SYSTEM":"UTC","REV_AT_EPOCH":"3294","RCS_SIZE":"LARGE","MEAN_MOTION_DOT":"-0.00000140","OBJECT_TYPE":"PAYLOAD","REF_FRAME":"TEME","LAUNCH_DATE":"2022-10-05","APOAPSIS":"540.548","ECCENTRICITY":"0.00011570","COUNTRY_CODE":"US","INCLINATION":"53.2158","OBJECT_ID":"2022-125AV","OBJECT_NAME":"STARLINK-5132","PERIOD":"95.438","TLE_LINE2":"2 54007  53.2158 188.2145 0001157  93.8616 266.2509 15.08839287 32947","ARG_OF_PERICENTER":"93.8616"},{"OBJECT_TYPE":"PAYLOAD","REF_FRAME":"TEME","LAUNCH_DATE":"2022-10-05","APOAPSIS":"540.364","ECCENTRICITY":"0.00009110","COUNTRY_CODE":"US","INCLINATION":"53.2146","OBJECT_NAME":"STARLINK-5145","OBJECT_ID":"2022-125AW","PERIOD":"95.437","TLE_LINE2":"2 54008  53.2146 178.2200 0000911 114.7806 245.3281 15.08843933 33081","ARG_OF_PERICENTER":"114.7806","EPHEMERIS_TYPE":"0","SEMIMAJOR_AXIS":"6917.868","EPOCH":"2023-05-07T20:54:33.135840","SITE":"AFWTR","TIME_SYSTEM":"UTC","REV_AT_EPOCH":"3308","MEAN_MOTION_DOT":"-0.00000910","RCS_SIZE":"LARGE","RA_OF_ASC_NODE":"178.2200","DECAY_DATE":null,"BSTAR":"-0.00003907700000","MEAN_MOTION":"15.08843933","GP_ID":"231431345","ELEMENT_SET_NO":"999","PERIAPSIS":"539.103","CLASSIFICATION_TYPE":"U","NORAD_CAT_ID":"54008","CENTER_NAME":"EARTH","TLE_LINE1":"1 54008U 22125AW  23127.87121685 -.00000910  00000-0 -39077-4 0  9994","FILE":"3903413","MEAN_ANOMALY":"245.3281","MEAN_ELEMENT_THEORY":"SGP4","MEAN_MOTION_DDOT":"0.0000000000000"},{"REV_AT_EPOCH":"3294","MEAN_MOTION_DOT":"0.00000977","RCS_SIZE":"LARGE","SEMIMAJOR_AXIS":"6917.885","EPHEMERIS_TYPE":"0","TIME_SYSTEM":"UTC","SITE":"AFWTR","EPOCH":"2023-05-07T20:53:13.708320","PERIOD":"95.438","INCLINATION":"53.2164","COUNTRY_CODE":"US","OBJECT_NAME":"STARLINK-5099","OBJECT_ID":"2022-125AX","ECCENTRICITY":"0.00012110","APOAPSIS":"540.588","ARG_OF_PERICENTER":"96.0990","TLE_LINE2":"2 54009  53.2164 188.1895 0001211  96.0990 264.0140 15.08838478 32946","REF_FRAME":"TEME","OBJECT_TYPE":"PAYLOAD","LAUNCH_DATE":"2022-10-05","MEAN_ANOMALY":"264.0140","FILE":"3903413","MEAN_MOTION_DDOT":"0.0000000000000","MEAN_ELEMENT_THEORY":"SGP4","CENTER_NAME":"EARTH","TLE_LINE1":"1 54009U 22125AX  23127.87029755  .00000977  00000-0  79480-4 0  9993","CLASSIFICATION_TYPE":"U","PERIAPSIS":"538.912","ELEMENT_SET_NO":"999","GP_ID":"231431595","MEAN_MOTION":"15.08838478","NORAD_CAT_ID":"54009","RA_OF_ASC_NODE":"188.1895","DECAY_DATE":null,"BSTAR":"0.00007948000000"},{"FILE":"3903413","MEAN_ANOMALY":"278.5742","MEAN_ELEMENT_THEORY":"SGP4","MEAN_MOTION_DDOT":"0.0000000000000","TLE_LINE1":"1 54010U 22125AY  23127.86384688  .00001123  00000-0  88604-4 0  9995","CENTER_NAME":"EARTH","MEAN_MOTION":"15.08843702","GP_ID":"231432347","ELEMENT_SET_NO":"999","CLASSIFICATION_TYPE":"U","PERIAPSIS":"538.811","NORAD_CAT_ID":"54010","RA_OF_ASC_NODE":"178.1838","DECAY_DATE":null,"BSTAR":"0.00008860400000","REV_AT_EPOCH":"3308","RCS_SIZE":"LARGE","MEAN_MOTION_DOT":"0.00001123","EPHEMERIS_TYPE":"0","SEMIMAJOR_AXIS":"6917.869","EPOCH":"2023-05-07T20:43:56.370432","SITE":"AFWTR","TIME_SYSTEM":"UTC","APOAPSIS":"540.657","ECCENTRICITY":"0.00013340","OBJECT_NAME":"STARLINK-5127","COUNTRY_CODE":"US","INCLINATION":"53.2152","OBJECT_ID":"2022-125AY","PERIOD":"95.437","TLE_LINE2":"2 54010  53.2152 178.1838 0001334  81.5401 278.5742 15.08843702 33083","ARG_OF_PERICENTER":"81.5401","OBJECT_TYPE":"PAYLOAD","REF_FRAME":"TEME","LAUNCH_DATE":"2022-10-05"},{"TLE_LINE1":"1 54011U 22125AZ  23127.85289537  .00012351  00000-0  79234-3 0  9995","CENTER_NAME":"EARTH","MEAN_ELEMENT_THEORY":"SGP4","MEAN_MOTION_DDOT":"0.0000000000000","FILE":"3903413","MEAN_ANOMALY":"276.1801","BSTAR":"0.00079234000000","DECAY_DATE":null,"RA_OF_ASC_NODE":"178.8127","NORAD_CAT_ID":"54011","MEAN_MOTION":"15.08858528","GP_ID":"231433097","ELEMENT_SET_NO":"999","PERIAPSIS":"539.062","CLASSIFICATION_TYPE":"U","EPOCH":"2023-05-07T20:28:10.159968","SITE":"AFWTR","TIME_SYSTEM":"UTC","EPHEMERIS_TYPE":"0","SEMIMAJOR_AXIS":"6917.824","MEAN_MOTION_DOT":"0.00012351","RCS_SIZE":"LARGE","REV_AT_EPOCH":"3307","LAUNCH_DATE":"2022-10-05","OBJECT_TYPE":"PAYLOAD","REF_FRAME":"TEME","TLE_LINE2":"2 54011  53.2138 178.8127 0000906  83.9295 276.1801 15.08858528 33078","ARG_OF_PERICENTER":"83.9295","APOAPSIS":"540.316","ECCENTRICITY":"0.00009060","COUNTRY_CODE":"US","INCLINATION":"53.2138","OBJECT_NAME":"STARLINK-5124","OBJECT_ID":"2022-125AZ","PERIOD":"95.436"},{"NORAD_CAT_ID":"54012","PERIAPSIS":"538.931","CLASSIFICATION_TYPE":"U","ELEMENT_SET_NO":"999","GP_ID":"231401014","MEAN_MOTION":"15.08845128","BSTAR":"0.00014408000000","DECAY_DATE":null,"RA_OF_ASC_NODE":"180.4378","MEAN_MOTION_DDOT":"0.0000000000000","MEAN_ELEMENT_THEORY":"SGP4","MEAN_ANOMALY":"275.9024","FILE":"3903215","TLE_LINE1":"1 54012U 22125BA  23127.42964701  .00002006  00000-0  14408-3 0  9990","CENTER_NAME":"EARTH","ARG_OF_PERICENTER":"84.2100","TLE_LINE2":"2 54012  53.2150 180.4378 0001154  84.2100 275.9024 15.08845128 33015","PERIOD":"95.437","OBJECT_ID":"2022-125BA","COUNTRY_CODE":"US","INCLINATION":"53.2150","OBJECT_NAME":"STARLINK-5126","APOAPSIS":"540.528","ECCENTRICITY":"0.00011540","LAUNCH_DATE":"2022-10-05","REF_FRAME":"TEME","OBJECT_TYPE":"PAYLOAD","MEAN_MOTION_DOT":"0.00002006","RCS_SIZE":"LARGE","REV_AT_EPOCH":"3301","TIME_SYSTEM":"UTC","SITE":"AFWTR","EPOCH":"2023-05-07T10:18:41.501664","SEMIMAJOR_AXIS":"6917.865","EPHEMERIS_TYPE":"0"},{"MEAN_ELEMENT_THEORY":"SGP4","MEAN_MOTION_DDOT":"0.0000000000000","FILE":"3903413","MEAN_ANOMALY":"272.0258","TLE_LINE1":"1 54013U 22125BB  23127.83445337  .00000626  00000-0  57389-4 0  9997","CENTER_NAME":"EARTH","NORAD_CAT_ID":"54013","MEAN_MOTION":"15.08842122","GP_ID":"231432095","ELEMENT_SET_NO":"999","PERIAPSIS":"538.994","CLASSIFICATION_TYPE":"U","BSTAR":"0.00005738900000","DECAY_DATE":null,"RA_OF_ASC_NODE":"178.6997","MEAN_MOTION_DOT":"0.00000626","RCS_SIZE":"LARGE","REV_AT_EPOCH":"3307","EPOCH":"2023-05-07T20:01:36.771168","SITE":"AFWTR","TIME_SYSTEM":"UTC","EPHEMERIS_TYPE":"0","SEMIMAJOR_AXIS":"6917.874","TLE_LINE2":"2 54013  53.2149 178.6997 0001077  88.0857 272.0258 15.08842122 33079","ARG_OF_PERICENTER":"88.0857","APOAPSIS":"540.484","ECCENTRICITY":"0.00010770","COUNTRY_CODE":"US","OBJECT_ID":"2022-125BB","INCLINATION":"53.2149","OBJECT_NAME":"STARLINK-5098","PERIOD":"95.437","LAUNCH_DATE":"2022-10-05","OBJECT_TYPE":"PAYLOAD","REF_FRAME":"TEME"}];
